[Satellite]
VERSION=1.1
NAME=IRIDIUM 160
NICKNAME=IRIDIUM 160
TLE1=1 43569U 18061A   20158.02638044  .00000073  00000-0  18889-4 0  9994
TLE2=2 43569  86.3986 256.9898 0002485 100.1254 260.0222 14.34217770 97734
STATUS=0
